QIANFAN GROUP 7 OBJECT K
1 68645U 26075K   26104.89922029 -.01877882  00000+0 -84869+0 0  9999
2 68645  88.9911 327.8671 0018679 181.3174 178.7974 14.25853296  1040
