{
  "norad_id": 68645,
  "name": "QIANFAN GROUP 7 OBJECT K",
  "history": [
    {
      "epoch": "2026-04-14T21:34:52.633056Z",
      "apogee_km": 819.0437833088263,
      "perigee_km": 792.2065409483021,
      "latitude_deg": 6.464892986514267e-05,
      "longitude_deg": 161.07877246890777,
      "height_km": 822.1051310953725,
      "semi_major_axis_km": 7183.762162128563,
      "eccentricity": 0.00186791,
      "inclination_deg": 88.9911,
      "raan_deg": 327.8671,
      "arg_perigee_deg": 181.3174,
      "mean_anomaly_deg": 178.7974,
      "mean_motion_rev_day": 14.25853296
    }
  ]
}